{
 "type": "FeatureCollection",
 "crs_note": "EPSG:4326 (lng, lat)",
 "features": [
  {
   "type": "Feature",
   "geometry": {
    "type": "Point",
    "coordinates": [
     106.489639,
     10.970187
    ]
   },
   "properties": {
    "pole_id": "POLE-0001",
    "segment_id": "SEG-001",
    "fixture_status": "normal",
    "status_confidence": 0.92,
    "power_source": "grid",
    "fixture_type": "led_road_lamp",
    "lamp_watt": 100,
    "install_date": "2022-03-24",
    "warranty_expiry": "2024-03-24",
    "commune_id": "COM-001",
    "last_seen_at": "2026-08-20T12:00:00Z",
    "last_sweep_id": "SWEEP-2026-08-19-01",
    "open_fault_count": 0,
    "has_iot_node": false,
    "near_sensitive_poi": false
   }
  },
  {
   "type": "Feature",
   "geometry": {
    "type": "Point",
    "coordinates": [
     106.489921,
     10.970347
    ]
   },
   "properties": {
    "pole_id": "POLE-0002",
    "segment_id": "SEG-001",
    "fixture_status": "normal",
    "status_confidence": 0.91,
    "power_source": "grid",
    "fixture_type": "led_road_lamp",
    "lamp_watt": 100,
    "install_date": "2022-09-20",
    "warranty_expiry": "2024-09-20",
    "commune_id": "COM-001",
    "last_seen_at": "2026-08-19T12:00:00Z",
    "last_sweep_id": "SWEEP-2026-08-19-01",
    "open_fault_count": 0,
    "has_iot_node": false,
    "near_sensitive_poi": false
   }
  },
  {
   "type": "Feature",
   "geometry": {
    "type": "Point",
    "coordinates": [
     106.490201,
     10.97051
    ]
   },
   "properties": {
    "pole_id": "POLE-0003",
    "segment_id": "SEG-001",
    "fixture_status": "normal",
    "status_confidence": 0.94,
    "power_source": "grid",
    "fixture_type": "led_road_lamp",
    "lamp_watt": 60,
    "install_date": "2024-10-09",
    "warranty_expiry": "2026-10-09",
    "commune_id": "COM-001",
    "last_seen_at": "2026-08-17T12:00:00Z",
    "last_sweep_id": "SWEEP-2026-08-19-01",
    "open_fault_count": 0,
    "has_iot_node": false,
    "near_sensitive_poi": false
   }
  },
  {
   "type": "Feature",
   "geometry": {
    "type": "Point",
    "coordinates": [
     106.490481,
     10.970673
    ]
   },
   "properties": {
    "pole_id": "POLE-0004",
    "segment_id": "SEG-001",
    "fixture_status": "normal",
    "status_confidence": 0.99,
    "power_source": "grid",
    "fixture_type": "led_road_lamp",
    "lamp_watt": 60,
    "install_date": "2023-02-03",
    "warranty_expiry": "2026-02-03",
    "commune_id": "COM-001",
    "last_seen_at": "2026-08-18T12:00:00Z",
    "last_sweep_id": "SWEEP-2026-08-19-01",
    "open_fault_count": 0,
    "has_iot_node": false,
    "near_sensitive_poi": false
   }
  },
  {
   "type": "Feature",
   "geometry": {
    "type": "Point",
    "coordinates": [
     106.490762,
     10.970836
    ]
   },
   "properties": {
    "pole_id": "POLE-0005",
    "segment_id": "SEG-001",
    "fixture_status": "normal",
    "status_confidence": 0.97,
    "power_source": "grid",
    "fixture_type": "led_road_lamp",
    "lamp_watt": 60,
    "install_date": "2024-09-04",
    "warranty_expiry": "2027-09-04",
    "commune_id": "COM-001",
    "last_seen_at": "2026-08-18T12:00:00Z",
    "last_sweep_id": "SWEEP-2026-08-19-01",
    "open_fault_count": 0,
    "has_iot_node": false,
    "near_sensitive_poi": false
   }
  },
  {
   "type": "Feature",
   "geometry": {
    "type": "Point",
    "coordinates": [
     106.491044,
     10.970996
    ]
   },
   "properties": {
    "pole_id": "POLE-0006",
    "segment_id": "SEG-001",
    "fixture_status": "normal",
    "status_confidence": 0.98,
    "power_source": "grid",
    "fixture_type": "led_road_lamp",
    "lamp_watt": 100,
    "install_date": "2022-12-03",
    "warranty_expiry": "2024-12-03",
    "commune_id": "COM-001",
    "last_seen_at": "2026-08-19T12:00:00Z",
    "last_sweep_id": "SWEEP-2026-08-19-01",
    "open_fault_count": 0,
    "has_iot_node": false,
    "near_sensitive_poi": false
   }
  },
  {
   "type": "Feature",
   "geometry": {
    "type": "Point",
    "coordinates": [
     106.491325,
     10.971156
    ]
   },
   "properties": {
    "pole_id": "POLE-0007",
    "segment_id": "SEG-001",
    "fixture_status": "unknown",
    "status_confidence": null,
    "power_source": "grid",
    "fixture_type": "led_road_lamp",
    "lamp_watt": 80,
    "install_date": "2022-02-13",
    "warranty_expiry": "2025-02-13",
    "commune_id": "COM-001",
    "last_seen_at": "2026-08-18T12:00:00Z",
    "last_sweep_id": "SWEEP-2026-08-19-01",
    "open_fault_count": 0,
    "has_iot_node": false,
    "near_sensitive_poi": false
   }
  },
  {
   "type": "Feature",
   "geometry": {
    "type": "Point",
    "coordinates": [
     106.491607,
     10.971316
    ]
   },
   "properties": {
    "pole_id": "POLE-0008",
    "segment_id": "SEG-001",
    "fixture_status": "normal",
    "status_confidence": 0.96,
    "power_source": "grid",
    "fixture_type": "led_road_lamp",
    "lamp_watt": 100,
    "install_date": "2021-10-21",
    "warranty_expiry": "2023-10-21",
    "commune_id": "COM-001",
    "last_seen_at": "2026-08-19T12:00:00Z",
    "last_sweep_id": "SWEEP-2026-08-19-01",
    "open_fault_count": 0,
    "has_iot_node": false,
    "near_sensitive_poi": false
   }
  },
  {
   "type": "Feature",
   "geometry": {
    "type": "Point",
    "coordinates": [
     106.491889,
     10.971477
    ]
   },
   "properties": {
    "pole_id": "POLE-0009",
    "segment_id": "SEG-001",
    "fixture_status": "normal",
    "status_confidence": 0.99,
    "power_source": "grid",
    "fixture_type": "led_road_lamp",
    "lamp_watt": 60,
    "install_date": "2022-11-11",
    "warranty_expiry": "2024-11-11",
    "commune_id": "COM-001",
    "last_seen_at": "2026-08-20T12:00:00Z",
    "last_sweep_id": "SWEEP-2026-08-19-01",
    "open_fault_count": 0,
    "has_iot_node": false,
    "near_sensitive_poi": false
   }
  },
  {
   "type": "Feature",
   "geometry": {
    "type": "Point",
    "coordinates": [
     106.492171,
     10.971637
    ]
   },
   "properties": {
    "pole_id": "POLE-0010",
    "segment_id": "SEG-001",
    "fixture_status": "normal",
    "status_confidence": 0.91,
    "power_source": "grid",
    "fixture_type": "led_road_lamp",
    "lamp_watt": 80,
    "install_date": "2023-04-21",
    "warranty_expiry": "2026-04-21",
    "commune_id": "COM-001",
    "last_seen_at": "2026-08-17T12:00:00Z",
    "last_sweep_id": "SWEEP-2026-08-19-01",
    "open_fault_count": 0,
    "has_iot_node": false,
    "near_sensitive_poi": false
   }
  },
  {
   "type": "Feature",
   "geometry": {
    "type": "Point",
    "coordinates": [
     106.492453,
     10.971797
    ]
   },
   "properties": {
    "pole_id": "POLE-0011",
    "segment_id": "SEG-001",
    "fixture_status": "normal",
    "status_confidence": 0.97,
    "power_source": "grid",
    "fixture_type": "led_road_lamp",
    "lamp_watt": 100,
    "install_date": "2023-12-19",
    "warranty_expiry": "2026-12-19",
    "commune_id": "COM-001",
    "last_seen_at": "2026-08-17T12:00:00Z",
    "last_sweep_id": "SWEEP-2026-08-19-01",
    "open_fault_count": 0,
    "has_iot_node": false,
    "near_sensitive_poi": false
   }
  },
  {
   "type": "Feature",
   "geometry": {
    "type": "Point",
    "coordinates": [
     106.492735,
     10.971957
    ]
   },
   "properties": {
    "pole_id": "POLE-0012",
    "segment_id": "SEG-001",
    "fixture_status": "unknown",
    "status_confidence": null,
    "power_source": "grid",
    "fixture_type": "led_road_lamp",
    "lamp_watt": 60,
    "install_date": "2022-09-16",
    "warranty_expiry": "2024-09-16",
    "commune_id": "COM-001",
    "last_seen_at": "2026-08-20T12:00:00Z",
    "last_sweep_id": "SWEEP-2026-08-19-01",
    "open_fault_count": 0,
    "has_iot_node": false,
    "near_sensitive_poi": false
   }
  },
  {
   "type": "Feature",
   "geometry": {
    "type": "Point",
    "coordinates": [
     106.49302,
     10.972112
    ]
   },
   "properties": {
    "pole_id": "POLE-0013",
    "segment_id": "SEG-001",
    "fixture_status": "normal",
    "status_confidence": 0.96,
    "power_source": "grid",
    "fixture_type": "led_road_lamp",
    "lamp_watt": 80,
    "install_date": "2021-07-13",
    "warranty_expiry": "2026-07-13",
    "commune_id": "COM-001",
    "last_seen_at": "2026-08-18T12:00:00Z",
    "last_sweep_id": "SWEEP-2026-08-19-01",
    "open_fault_count": 0,
    "has_iot_node": false,
    "near_sensitive_poi": false
   }
  },
  {
   "type": "Feature",
   "geometry": {
    "type": "Point",
    "coordinates": [
     106.493301,
     10.972274
    ]
   },
   "properties": {
    "pole_id": "POLE-0014",
    "segment_id": "SEG-001",
    "fixture_status": "out",
    "status_confidence": 0.88,
    "power_source": "grid",
    "fixture_type": "led_road_lamp",
    "lamp_watt": 100,
    "install_date": "2021-11-18",
    "warranty_expiry": "2024-11-18",
    "commune_id": "COM-001",
    "last_seen_at": "2026-08-18T12:00:00Z",
    "last_sweep_id": "SWEEP-2026-08-19-01",
    "open_fault_count": 1,
    "has_iot_node": false,
    "near_sensitive_poi": true
   }
  },
  {
   "type": "Feature",
   "geometry": {
    "type": "Point",
    "coordinates": [
     106.493579,
     10.972439
    ]
   },
   "properties": {
    "pole_id": "POLE-0015",
    "segment_id": "SEG-001",
    "fixture_status": "normal",
    "status_confidence": 0.94,
    "power_source": "grid",
    "fixture_type": "led_road_lamp",
    "lamp_watt": 100,
    "install_date": "2023-09-25",
    "warranty_expiry": "2025-09-25",
    "commune_id": "COM-001",
    "last_seen_at": "2026-08-20T12:00:00Z",
    "last_sweep_id": "SWEEP-2026-08-19-01",
    "open_fault_count": 0,
    "has_iot_node": false,
    "near_sensitive_poi": false
   }
  },
  {
   "type": "Feature",
   "geometry": {
    "type": "Point",
    "coordinates": [
     106.493858,
     10.972605
    ]
   },
   "properties": {
    "pole_id": "POLE-0016",
    "segment_id": "SEG-001",
    "fixture_status": "normal",
    "status_confidence": 0.96,
    "power_source": "grid",
    "fixture_type": "led_road_lamp",
    "lamp_watt": 100,
    "install_date": "2022-03-12",
    "warranty_expiry": "2024-03-12",
    "commune_id": "COM-001",
    "last_seen_at": "2026-08-20T12:00:00Z",
    "last_sweep_id": "SWEEP-2026-08-19-01",
    "open_fault_count": 0,
    "has_iot_node": false,
    "near_sensitive_poi": false
   }
  },
  {
   "type": "Feature",
   "geometry": {
    "type": "Point",
    "coordinates": [
     106.494139,
     10.972766
    ]
   },
   "properties": {
    "pole_id": "POLE-0017",
    "segment_id": "SEG-001",
    "fixture_status": "normal",
    "status_confidence": 0.91,
    "power_source": "grid",
    "fixture_type": "led_road_lamp",
    "lamp_watt": 60,
    "install_date": "2023-05-08",
    "warranty_expiry": "2025-05-08",
    "commune_id": "COM-001",
    "last_seen_at": "2026-08-20T12:00:00Z",
    "last_sweep_id": "SWEEP-2026-08-19-01",
    "open_fault_count": 0,
    "has_iot_node": false,
    "near_sensitive_poi": true
   }
  },
  {
   "type": "Feature",
   "geometry": {
    "type": "Point",
    "coordinates": [
     106.494421,
     10.972927
    ]
   },
   "properties": {
    "pole_id": "POLE-0018",
    "segment_id": "SEG-001",
    "fixture_status": "normal",
    "status_confidence": 0.91,
    "power_source": "grid",
    "fixture_type": "led_road_lamp",
    "lamp_watt": 100,
    "install_date": "2022-03-22",
    "warranty_expiry": "2025-03-22",
    "commune_id": "COM-001",
    "last_seen_at": "2026-08-19T12:00:00Z",
    "last_sweep_id": "SWEEP-2026-08-19-01",
    "open_fault_count": 0,
    "has_iot_node": false,
    "near_sensitive_poi": false
   }
  },
  {
   "type": "Feature",
   "geometry": {
    "type": "Point",
    "coordinates": [
     106.494703,
     10.973087
    ]
   },
   "properties": {
    "pole_id": "POLE-0019",
    "segment_id": "SEG-001",
    "fixture_status": "out",
    "status_confidence": 0.93,
    "power_source": "grid",
    "fixture_type": "led_road_lamp",
    "lamp_watt": 100,
    "install_date": "2022-09-25",
    "warranty_expiry": "2027-09-25",
    "commune_id": "COM-001",
    "last_seen_at": "2026-08-19T12:00:00Z",
    "last_sweep_id": "SWEEP-2026-08-19-01",
    "open_fault_count": 1,
    "has_iot_node": false,
    "near_sensitive_poi": false
   }
  },
  {
   "type": "Feature",
   "geometry": {
    "type": "Point",
    "coordinates": [
     106.494983,
     10.973249
    ]
   },
   "properties": {
    "pole_id": "POLE-0020",
    "segment_id": "SEG-001",
    "fixture_status": "normal",
    "status_confidence": 0.96,
    "power_source": "grid",
    "fixture_type": "led_road_lamp",
    "lamp_watt": 60,
    "install_date": "2023-08-17",
    "warranty_expiry": "2026-08-17",
    "commune_id": "COM-001",
    "last_seen_at": "2026-08-19T12:00:00Z",
    "last_sweep_id": "SWEEP-2026-08-19-01",
    "open_fault_count": 0,
    "has_iot_node": true,
    "near_sensitive_poi": false
   }
  },
  {
   "type": "Feature",
   "geometry": {
    "type": "Point",
    "coordinates": [
     106.495265,
     10.97341
    ]
   },
   "properties": {
    "pole_id": "POLE-0021",
    "segment_id": "SEG-001",
    "fixture_status": "normal",
    "status_confidence": 0.95,
    "power_source": "grid",
    "fixture_type": "led_road_lamp",
    "lamp_watt": 60,
    "install_date": "2022-10-08",
    "warranty_expiry": "2024-10-08",
    "commune_id": "COM-001",
    "last_seen_at": "2026-08-20T12:00:00Z",
    "last_sweep_id": "SWEEP-2026-08-19-01",
    "open_fault_count": 0,
    "has_iot_node": false,
    "near_sensitive_poi": false
   }
  },
  {
   "type": "Feature",
   "geometry": {
    "type": "Point",
    "coordinates": [
     106.495546,
     10.973571
    ]
   },
   "properties": {
    "pole_id": "POLE-0022",
    "segment_id": "SEG-001",
    "fixture_status": "out",
    "status_confidence": 0.97,
    "power_source": "grid",
    "fixture_type": "led_road_lamp",
    "lamp_watt": 100,
    "install_date": "2021-09-08",
    "warranty_expiry": "2024-09-08",
    "commune_id": "COM-001",
    "last_seen_at": "2026-08-17T12:00:00Z",
    "last_sweep_id": "SWEEP-2026-08-19-01",
    "open_fault_count": 1,
    "has_iot_node": false,
    "near_sensitive_poi": false
   }
  },
  {
   "type": "Feature",
   "geometry": {
    "type": "Point",
    "coordinates": [
     106.495827,
     10.973733
    ]
   },
   "properties": {
    "pole_id": "POLE-0023",
    "segment_id": "SEG-001",
    "fixture_status": "normal",
    "status_confidence": 0.98,
    "power_source": "grid",
    "fixture_type": "led_road_lamp",
    "lamp_watt": 80,
    "install_date": "2024-04-26",
    "warranty_expiry": "2027-04-26",
    "commune_id": "COM-001",
    "last_seen_at": "2026-08-19T12:00:00Z",
    "last_sweep_id": "SWEEP-2026-08-19-01",
    "open_fault_count": 0,
    "has_iot_node": false,
    "near_sensitive_poi": true
   }
  },
  {
   "type": "Feature",
   "geometry": {
    "type": "Point",
    "coordinates": [
     106.496112,
     10.973888
    ]
   },
   "properties": {
    "pole_id": "POLE-0024",
    "segment_id": "SEG-001",
    "fixture_status": "normal",
    "status_confidence": 0.93,
    "power_source": "grid",
    "fixture_type": "led_road_lamp",
    "lamp_watt": 60,
    "install_date": "2024-08-28",
    "warranty_expiry": "2029-08-28",
    "commune_id": "COM-001",
    "last_seen_at": "2026-08-20T12:00:00Z",
    "last_sweep_id": "SWEEP-2026-08-19-01",
    "open_fault_count": 0,
    "has_iot_node": false,
    "near_sensitive_poi": true
   }
  },
  {
   "type": "Feature",
   "geometry": {
    "type": "Point",
    "coordinates": [
     106.496396,
     10.974044
    ]
   },
   "properties": {
    "pole_id": "POLE-0025",
    "segment_id": "SEG-001",
    "fixture_status": "dim",
    "status_confidence": 0.83,
    "power_source": "grid",
    "fixture_type": "led_road_lamp",
    "lamp_watt": 100,
    "install_date": "2021-04-07",
    "warranty_expiry": "2023-04-07",
    "commune_id": "COM-001",
    "last_seen_at": "2026-08-17T12:00:00Z",
    "last_sweep_id": "SWEEP-2026-08-19-01",
    "open_fault_count": 1,
    "has_iot_node": false,
    "near_sensitive_poi": false
   }
  },
  {
   "type": "Feature",
   "geometry": {
    "type": "Point",
    "coordinates": [
     106.496678,
     10.974204
    ]
   },
   "properties": {
    "pole_id": "POLE-0026",
    "segment_id": "SEG-001",
    "fixture_status": "normal",
    "status_confidence": 0.94,
    "power_source": "grid",
    "fixture_type": "led_road_lamp",
    "lamp_watt": 60,
    "install_date": "2021-08-26",
    "warranty_expiry": "2026-08-26",
    "commune_id": "COM-001",
    "last_seen_at": "2026-08-20T12:00:00Z",
    "last_sweep_id": "SWEEP-2026-08-19-01",
    "open_fault_count": 0,
    "has_iot_node": false,
    "near_sensitive_poi": false
   }
  },
  {
   "type": "Feature",
   "geometry": {
    "type": "Point",
    "coordinates": [
     106.49696,
     10.974364
    ]
   },
   "properties": {
    "pole_id": "POLE-0027",
    "segment_id": "SEG-001",
    "fixture_status": "normal",
    "status_confidence": 0.9,
    "power_source": "grid",
    "fixture_type": "led_road_lamp",
    "lamp_watt": 80,
    "install_date": "2021-04-06",
    "warranty_expiry": "2024-04-06",
    "commune_id": "COM-001",
    "last_seen_at": "2026-08-17T12:00:00Z",
    "last_sweep_id": "SWEEP-2026-08-19-01",
    "open_fault_count": 0,
    "has_iot_node": false,
    "near_sensitive_poi": false
   }
  },
  {
   "type": "Feature",
   "geometry": {
    "type": "Point",
    "coordinates": [
     106.497242,
     10.974525
    ]
   },
   "properties": {
    "pole_id": "POLE-0028",
    "segment_id": "SEG-001",
    "fixture_status": "normal",
    "status_confidence": 0.91,
    "power_source": "grid",
    "fixture_type": "led_road_lamp",
    "lamp_watt": 80,
    "install_date": "2024-01-13",
    "warranty_expiry": "2027-01-13",
    "commune_id": "COM-001",
    "last_seen_at": "2026-08-18T12:00:00Z",
    "last_sweep_id": "SWEEP-2026-08-19-01",
    "open_fault_count": 0,
    "has_iot_node": false,
    "near_sensitive_poi": false
   }
  },
  {
   "type": "Feature",
   "geometry": {
    "type": "Point",
    "coordinates": [
     106.497524,
     10.974685
    ]
   },
   "properties": {
    "pole_id": "POLE-0029",
    "segment_id": "SEG-001",
    "fixture_status": "unknown",
    "status_confidence": null,
    "power_source": "grid",
    "fixture_type": "led_road_lamp",
    "lamp_watt": 60,
    "install_date": "2024-03-07",
    "warranty_expiry": "2027-03-07",
    "commune_id": "COM-001",
    "last_seen_at": "2026-08-20T12:00:00Z",
    "last_sweep_id": "SWEEP-2026-08-19-01",
    "open_fault_count": 0,
    "has_iot_node": false,
    "near_sensitive_poi": false
   }
  },
  {
   "type": "Feature",
   "geometry": {
    "type": "Point",
    "coordinates": [
     106.497805,
     10.974846
    ]
   },
   "properties": {
    "pole_id": "POLE-0030",
    "segment_id": "SEG-001",
    "fixture_status": "normal",
    "status_confidence": 0.97,
    "power_source": "grid",
    "fixture_type": "led_road_lamp",
    "lamp_watt": 100,
    "install_date": "2021-01-19",
    "warranty_expiry": "2024-01-19",
    "commune_id": "COM-001",
    "last_seen_at": "2026-08-19T12:00:00Z",
    "last_sweep_id": "SWEEP-2026-08-19-01",
    "open_fault_count": 0,
    "has_iot_node": false,
    "near_sensitive_poi": true
   }
  },
  {
   "type": "Feature",
   "geometry": {
    "type": "Point",
    "coordinates": [
     106.498087,
     10.975006
    ]
   },
   "properties": {
    "pole_id": "POLE-0031",
    "segment_id": "SEG-001",
    "fixture_status": "normal",
    "status_confidence": 0.98,
    "power_source": "grid",
    "fixture_type": "led_road_lamp",
    "lamp_watt": 60,
    "install_date": "2021-10-03",
    "warranty_expiry": "2026-10-03",
    "commune_id": "COM-001",
    "last_seen_at": "2026-08-17T12:00:00Z",
    "last_sweep_id": "SWEEP-2026-08-19-01",
    "open_fault_count": 0,
    "has_iot_node": false,
    "near_sensitive_poi": true
   }
  },
  {
   "type": "Feature",
   "geometry": {
    "type": "Point",
    "coordinates": [
     106.498367,
     10.97517
    ]
   },
   "properties": {
    "pole_id": "POLE-0032",
    "segment_id": "SEG-001",
    "fixture_status": "out",
    "status_confidence": 0.91,
    "power_source": "grid",
    "fixture_type": "led_road_lamp",
    "lamp_watt": 100,
    "install_date": "2021-10-03",
    "warranty_expiry": "2024-10-03",
    "commune_id": "COM-001",
    "last_seen_at": "2026-08-18T12:00:00Z",
    "last_sweep_id": "SWEEP-2026-08-19-01",
    "open_fault_count": 1,
    "has_iot_node": false,
    "near_sensitive_poi": false
   }
  },
  {
   "type": "Feature",
   "geometry": {
    "type": "Point",
    "coordinates": [
     106.498642,
     10.97534
    ]
   },
   "properties": {
    "pole_id": "POLE-0033",
    "segment_id": "SEG-001",
    "fixture_status": "normal",
    "status_confidence": 0.96,
    "power_source": "grid",
    "fixture_type": "led_road_lamp",
    "lamp_watt": 100,
    "install_date": "2022-05-13",
    "warranty_expiry": "2024-05-13",
    "commune_id": "COM-001",
    "last_seen_at": "2026-08-18T12:00:00Z",
    "last_sweep_id": "SWEEP-2026-08-19-01",
    "open_fault_count": 0,
    "has_iot_node": false,
    "near_sensitive_poi": false
   }
  },
  {
   "type": "Feature",
   "geometry": {
    "type": "Point",
    "coordinates": [
     106.498926,
     10.975497
    ]
   },
   "properties": {
    "pole_id": "POLE-0034",
    "segment_id": "SEG-001",
    "fixture_status": "out",
    "status_confidence": 0.98,
    "power_source": "grid",
    "fixture_type": "led_road_lamp",
    "lamp_watt": 60,
    "install_date": "2021-08-20",
    "warranty_expiry": "2026-08-20",
    "commune_id": "COM-001",
    "last_seen_at": "2026-08-20T12:00:00Z",
    "last_sweep_id": "SWEEP-2026-08-19-01",
    "open_fault_count": 1,
    "has_iot_node": false,
    "near_sensitive_poi": false
   }
  },
  {
   "type": "Feature",
   "geometry": {
    "type": "Point",
    "coordinates": [
     106.499209,
     10.975654
    ]
   },
   "properties": {
    "pole_id": "POLE-0035",
    "segment_id": "SEG-001",
    "fixture_status": "normal",
    "status_confidence": 0.91,
    "power_source": "grid",
    "fixture_type": "led_road_lamp",
    "lamp_watt": 80,
    "install_date": "2023-02-08",
    "warranty_expiry": "2026-02-08",
    "commune_id": "COM-001",
    "last_seen_at": "2026-08-19T12:00:00Z",
    "last_sweep_id": "SWEEP-2026-08-19-01",
    "open_fault_count": 0,
    "has_iot_node": false,
    "near_sensitive_poi": false
   }
  },
  {
   "type": "Feature",
   "geometry": {
    "type": "Point",
    "coordinates": [
     106.499493,
     10.975812
    ]
   },
   "properties": {
    "pole_id": "POLE-0036",
    "segment_id": "SEG-001",
    "fixture_status": "normal",
    "status_confidence": 0.93,
    "power_source": "grid",
    "fixture_type": "led_road_lamp",
    "lamp_watt": 80,
    "install_date": "2021-11-27",
    "warranty_expiry": "2026-11-27",
    "commune_id": "COM-001",
    "last_seen_at": "2026-08-20T12:00:00Z",
    "last_sweep_id": "SWEEP-2026-08-19-01",
    "open_fault_count": 0,
    "has_iot_node": false,
    "near_sensitive_poi": false
   }
  },
  {
   "type": "Feature",
   "geometry": {
    "type": "Point",
    "coordinates": [
     106.499777,
     10.975968
    ]
   },
   "properties": {
    "pole_id": "POLE-0037",
    "segment_id": "SEG-001",
    "fixture_status": "normal",
    "status_confidence": 0.91,
    "power_source": "grid",
    "fixture_type": "led_road_lamp",
    "lamp_watt": 80,
    "install_date": "2021-12-18",
    "warranty_expiry": "2023-12-18",
    "commune_id": "COM-001",
    "last_seen_at": "2026-08-18T12:00:00Z",
    "last_sweep_id": "SWEEP-2026-08-19-01",
    "open_fault_count": 0,
    "has_iot_node": false,
    "near_sensitive_poi": false
   }
  },
  {
   "type": "Feature",
   "geometry": {
    "type": "Point",
    "coordinates": [
     106.500061,
     10.976124
    ]
   },
   "properties": {
    "pole_id": "POLE-0038",
    "segment_id": "SEG-001",
    "fixture_status": "normal",
    "status_confidence": 0.92,
    "power_source": "grid",
    "fixture_type": "led_road_lamp",
    "lamp_watt": 60,
    "install_date": "2023-09-16",
    "warranty_expiry": "2026-09-16",
    "commune_id": "COM-001",
    "last_seen_at": "2026-08-20T12:00:00Z",
    "last_sweep_id": "SWEEP-2026-08-19-01",
    "open_fault_count": 0,
    "has_iot_node": false,
    "near_sensitive_poi": false
   }
  },
  {
   "type": "Feature",
   "geometry": {
    "type": "Point",
    "coordinates": [
     106.500339,
     10.97629
    ]
   },
   "properties": {
    "pole_id": "POLE-0039",
    "segment_id": "SEG-001",
    "fixture_status": "dim",
    "status_confidence": 0.63,
    "power_source": "grid",
    "fixture_type": "led_road_lamp",
    "lamp_watt": 60,
    "install_date": "2023-03-21",
    "warranty_expiry": "2026-03-21",
    "commune_id": "COM-001",
    "last_seen_at": "2026-08-17T12:00:00Z",
    "last_sweep_id": "SWEEP-2026-08-19-01",
    "open_fault_count": 1,
    "has_iot_node": true,
    "near_sensitive_poi": false
   }
  },
  {
   "type": "Feature",
   "geometry": {
    "type": "Point",
    "coordinates": [
     106.500618,
     10.976456
    ]
   },
   "properties": {
    "pole_id": "POLE-0040",
    "segment_id": "SEG-001",
    "fixture_status": "normal",
    "status_confidence": 0.9,
    "power_source": "grid",
    "fixture_type": "led_road_lamp",
    "lamp_watt": 60,
    "install_date": "2021-12-05",
    "warranty_expiry": "2026-12-05",
    "commune_id": "COM-001",
    "last_seen_at": "2026-08-18T12:00:00Z",
    "last_sweep_id": "SWEEP-2026-08-19-01",
    "open_fault_count": 0,
    "has_iot_node": false,
    "near_sensitive_poi": false
   }
  },
  {
   "type": "Feature",
   "geometry": {
    "type": "Point",
    "coordinates": [
     106.500901,
     10.976615
    ]
   },
   "properties": {
    "pole_id": "POLE-0041",
    "segment_id": "SEG-001",
    "fixture_status": "normal",
    "status_confidence": 0.91,
    "power_source": "grid",
    "fixture_type": "led_road_lamp",
    "lamp_watt": 80,
    "install_date": "2023-06-26",
    "warranty_expiry": "2025-06-26",
    "commune_id": "COM-001",
    "last_seen_at": "2026-08-19T12:00:00Z",
    "last_sweep_id": "SWEEP-2026-08-19-01",
    "open_fault_count": 0,
    "has_iot_node": false,
    "near_sensitive_poi": false
   }
  },
  {
   "type": "Feature",
   "geometry": {
    "type": "Point",
    "coordinates": [
     106.501182,
     10.976776
    ]
   },
   "properties": {
    "pole_id": "POLE-0042",
    "segment_id": "SEG-001",
    "fixture_status": "normal",
    "status_confidence": 0.93,
    "power_source": "grid",
    "fixture_type": "led_road_lamp",
    "lamp_watt": 60,
    "install_date": "2024-10-24",
    "warranty_expiry": "2026-10-24",
    "commune_id": "COM-001",
    "last_seen_at": "2026-08-19T12:00:00Z",
    "last_sweep_id": "SWEEP-2026-08-19-01",
    "open_fault_count": 0,
    "has_iot_node": false,
    "near_sensitive_poi": false
   }
  },
  {
   "type": "Feature",
   "geometry": {
    "type": "Point",
    "coordinates": [
     106.501463,
     10.976937
    ]
   },
   "properties": {
    "pole_id": "POLE-0043",
    "segment_id": "SEG-001",
    "fixture_status": "dim",
    "status_confidence": 0.85,
    "power_source": "grid",
    "fixture_type": "led_road_lamp",
    "lamp_watt": 80,
    "install_date": "2021-03-24",
    "warranty_expiry": "2024-03-24",
    "commune_id": "COM-001",
    "last_seen_at": "2026-08-19T12:00:00Z",
    "last_sweep_id": "SWEEP-2026-08-19-01",
    "open_fault_count": 1,
    "has_iot_node": false,
    "near_sensitive_poi": false
   }
  },
  {
   "type": "Feature",
   "geometry": {
    "type": "Point",
    "coordinates": [
     106.501745,
     10.977098
    ]
   },
   "properties": {
    "pole_id": "POLE-0044",
    "segment_id": "SEG-001",
    "fixture_status": "dim",
    "status_confidence": 0.65,
    "power_source": "grid",
    "fixture_type": "led_road_lamp",
    "lamp_watt": 80,
    "install_date": "2021-08-08",
    "warranty_expiry": "2023-08-08",
    "commune_id": "COM-001",
    "last_seen_at": "2026-08-18T12:00:00Z",
    "last_sweep_id": "SWEEP-2026-08-19-01",
    "open_fault_count": 1,
    "has_iot_node": false,
    "near_sensitive_poi": false
   }
  },
  {
   "type": "Feature",
   "geometry": {
    "type": "Point",
    "coordinates": [
     106.502027,
     10.977257
    ]
   },
   "properties": {
    "pole_id": "POLE-0045",
    "segment_id": "SEG-001",
    "fixture_status": "dim",
    "status_confidence": 0.68,
    "power_source": "grid",
    "fixture_type": "led_road_lamp",
    "lamp_watt": 80,
    "install_date": "2021-11-07",
    "warranty_expiry": "2024-11-07",
    "commune_id": "COM-001",
    "last_seen_at": "2026-08-18T12:00:00Z",
    "last_sweep_id": "SWEEP-2026-08-19-01",
    "open_fault_count": 1,
    "has_iot_node": false,
    "near_sensitive_poi": false
   }
  },
  {
   "type": "Feature",
   "geometry": {
    "type": "Point",
    "coordinates": [
     106.502308,
     10.977419
    ]
   },
   "properties": {
    "pole_id": "POLE-0046",
    "segment_id": "SEG-001",
    "fixture_status": "unknown",
    "status_confidence": null,
    "power_source": "grid",
    "fixture_type": "led_road_lamp",
    "lamp_watt": 80,
    "install_date": "2023-06-21",
    "warranty_expiry": "2028-06-21",
    "commune_id": "COM-001",
    "last_seen_at": "2026-08-18T12:00:00Z",
    "last_sweep_id": "SWEEP-2026-08-19-01",
    "open_fault_count": 0,
    "has_iot_node": false,
    "near_sensitive_poi": false
   }
  },
  {
   "type": "Feature",
   "geometry": {
    "type": "Point",
    "coordinates": [
     106.495788,
     10.964558
    ]
   },
   "properties": {
    "pole_id": "POLE-0047",
    "segment_id": "SEG-002",
    "fixture_status": "dim",
    "status_confidence": 0.81,
    "power_source": "solar",
    "fixture_type": "solar_all_in_one",
    "lamp_watt": 60,
    "install_date": "2023-01-04",
    "warranty_expiry": "2028-01-04",
    "commune_id": "COM-001",
    "last_seen_at": "2026-08-18T12:00:00Z",
    "last_sweep_id": "SWEEP-2026-08-19-01",
    "open_fault_count": 1,
    "has_iot_node": true,
    "near_sensitive_poi": false
   }
  },
  {
   "type": "Feature",
   "geometry": {
    "type": "Point",
    "coordinates": [
     106.495934,
     10.964892
    ]
   },
   "properties": {
    "pole_id": "POLE-0048",
    "segment_id": "SEG-002",
    "fixture_status": "normal",
    "status_confidence": 0.95,
    "power_source": "solar",
    "fixture_type": "solar_all_in_one",
    "lamp_watt": 60,
    "install_date": "2021-07-19",
    "warranty_expiry": "2023-07-19",
    "commune_id": "COM-001",
    "last_seen_at": "2026-08-20T12:00:00Z",
    "last_sweep_id": "SWEEP-2026-08-19-01",
    "open_fault_count": 0,
    "has_iot_node": false,
    "near_sensitive_poi": false
   }
  },
  {
   "type": "Feature",
   "geometry": {
    "type": "Point",
    "coordinates": [
     106.496081,
     10.965226
    ]
   },
   "properties": {
    "pole_id": "POLE-0049",
    "segment_id": "SEG-002",
    "fixture_status": "normal",
    "status_confidence": 0.98,
    "power_source": "solar",
    "fixture_type": "solar_all_in_one",
    "lamp_watt": 60,
    "install_date": "2022-06-14",
    "warranty_expiry": "2024-06-14",
    "commune_id": "COM-001",
    "last_seen_at": "2026-08-18T12:00:00Z",
    "last_sweep_id": "SWEEP-2026-08-19-01",
    "open_fault_count": 0,
    "has_iot_node": false,
    "near_sensitive_poi": false
   }
  },
  {
   "type": "Feature",
   "geometry": {
    "type": "Point",
    "coordinates": [
     106.49622,
     10.965563
    ]
   },
   "properties": {
    "pole_id": "POLE-0050",
    "segment_id": "SEG-002",
    "fixture_status": "normal",
    "status_confidence": 0.98,
    "power_source": "solar",
    "fixture_type": "solar_all_in_one",
    "lamp_watt": 60,
    "install_date": "2023-11-14",
    "warranty_expiry": "2026-11-14",
    "commune_id": "COM-001",
    "last_seen_at": "2026-08-18T12:00:00Z",
    "last_sweep_id": "SWEEP-2026-08-19-01",
    "open_fault_count": 0,
    "has_iot_node": false,
    "near_sensitive_poi": false
   }
  },
  {
   "type": "Feature",
   "geometry": {
    "type": "Point",
    "coordinates": [
     106.496347,
     10.965904
    ]
   },
   "properties": {
    "pole_id": "POLE-0051",
    "segment_id": "SEG-002",
    "fixture_status": "normal",
    "status_confidence": 0.96,
    "power_source": "solar",
    "fixture_type": "solar_all_in_one",
    "lamp_watt": 60,
    "install_date": "2024-11-24",
    "warranty_expiry": "2026-11-24",
    "commune_id": "COM-001",
    "last_seen_at": "2026-08-17T12:00:00Z",
    "last_sweep_id": "SWEEP-2026-08-19-01",
    "open_fault_count": 0,
    "has_iot_node": false,
    "near_sensitive_poi": false
   }
  },
  {
   "type": "Feature",
   "geometry": {
    "type": "Point",
    "coordinates": [
     106.496444,
     10.966255
    ]
   },
   "properties": {
    "pole_id": "POLE-0052",
    "segment_id": "SEG-002",
    "fixture_status": "normal",
    "status_confidence": 0.93,
    "power_source": "solar",
    "fixture_type": "solar_all_in_one",
    "lamp_watt": 60,
    "install_date": "2024-10-20",
    "warranty_expiry": "2029-10-20",
    "commune_id": "COM-001",
    "last_seen_at": "2026-08-17T12:00:00Z",
    "last_sweep_id": "SWEEP-2026-08-19-01",
    "open_fault_count": 0,
    "has_iot_node": false,
    "near_sensitive_poi": false
   }
  },
  {
   "type": "Feature",
   "geometry": {
    "type": "Point",
    "coordinates": [
     106.496523,
     10.96661
    ]
   },
   "properties": {
    "pole_id": "POLE-0053",
    "segment_id": "SEG-002",
    "fixture_status": "normal",
    "status_confidence": 0.95,
    "power_source": "solar",
    "fixture_type": "solar_all_in_one",
    "lamp_watt": 60,
    "install_date": "2022-11-03",
    "warranty_expiry": "2025-11-03",
    "commune_id": "COM-001",
    "last_seen_at": "2026-08-20T12:00:00Z",
    "last_sweep_id": "SWEEP-2026-08-19-01",
    "open_fault_count": 0,
    "has_iot_node": false,
    "near_sensitive_poi": false
   }
  },
  {
   "type": "Feature",
   "geometry": {
    "type": "Point",
    "coordinates": [
     106.496604,
     10.966965
    ]
   },
   "properties": {
    "pole_id": "POLE-0054",
    "segment_id": "SEG-002",
    "fixture_status": "dim",
    "status_confidence": 0.79,
    "power_source": "solar",
    "fixture_type": "solar_all_in_one",
    "lamp_watt": 40,
    "install_date": "2022-04-05",
    "warranty_expiry": "2024-04-05",
    "commune_id": "COM-001",
    "last_seen_at": "2026-08-19T12:00:00Z",
    "last_sweep_id": "SWEEP-2026-08-19-01",
    "open_fault_count": 1,
    "has_iot_node": false,
    "near_sensitive_poi": false
   }
  },
  {
   "type": "Feature",
   "geometry": {
    "type": "Point",
    "coordinates": [
     106.496689,
     10.967319
    ]
   },
   "properties": {
    "pole_id": "POLE-0055",
    "segment_id": "SEG-002",
    "fixture_status": "normal",
    "status_confidence": 0.97,
    "power_source": "solar",
    "fixture_type": "solar_all_in_one",
    "lamp_watt": 40,
    "install_date": "2024-07-21",
    "warranty_expiry": "2029-07-21",
    "commune_id": "COM-001",
    "last_seen_at": "2026-08-17T12:00:00Z",
    "last_sweep_id": "SWEEP-2026-08-19-01",
    "open_fault_count": 0,
    "has_iot_node": false,
    "near_sensitive_poi": false
   }
  },
  {
   "type": "Feature",
   "geometry": {
    "type": "Point",
    "coordinates": [
     106.496773,
     10.967674
    ]
   },
   "properties": {
    "pole_id": "POLE-0056",
    "segment_id": "SEG-002",
    "fixture_status": "normal",
    "status_confidence": 0.96,
    "power_source": "solar",
    "fixture_type": "solar_all_in_one",
    "lamp_watt": 40,
    "install_date": "2021-02-25",
    "warranty_expiry": "2024-02-25",
    "commune_id": "COM-001",
    "last_seen_at": "2026-08-19T12:00:00Z",
    "last_sweep_id": "SWEEP-2026-08-19-01",
    "open_fault_count": 0,
    "has_iot_node": false,
    "near_sensitive_poi": false
   }
  },
  {
   "type": "Feature",
   "geometry": {
    "type": "Point",
    "coordinates": [
     106.496857,
     10.968028
    ]
   },
   "properties": {
    "pole_id": "POLE-0057",
    "segment_id": "SEG-002",
    "fixture_status": "normal",
    "status_confidence": 0.94,
    "power_source": "solar",
    "fixture_type": "solar_all_in_one",
    "lamp_watt": 60,
    "install_date": "2022-02-15",
    "warranty_expiry": "2024-02-15",
    "commune_id": "COM-001",
    "last_seen_at": "2026-08-18T12:00:00Z",
    "last_sweep_id": "SWEEP-2026-08-19-01",
    "open_fault_count": 0,
    "has_iot_node": false,
    "near_sensitive_poi": false
   }
  },
  {
   "type": "Feature",
   "geometry": {
    "type": "Point",
    "coordinates": [
     106.496944,
     10.968381
    ]
   },
   "properties": {
    "pole_id": "POLE-0058",
    "segment_id": "SEG-002",
    "fixture_status": "out",
    "status_confidence": 0.95,
    "power_source": "solar",
    "fixture_type": "solar_all_in_one",
    "lamp_watt": 60,
    "install_date": "2024-09-15",
    "warranty_expiry": "2026-09-15",
    "commune_id": "COM-001",
    "last_seen_at": "2026-08-17T12:00:00Z",
    "last_sweep_id": "SWEEP-2026-08-19-01",
    "open_fault_count": 1,
    "has_iot_node": true,
    "near_sensitive_poi": false
   }
  },
  {
   "type": "Feature",
   "geometry": {
    "type": "Point",
    "coordinates": [
     106.497032,
     10.968735
    ]
   },
   "properties": {
    "pole_id": "POLE-0059",
    "segment_id": "SEG-002",
    "fixture_status": "normal",
    "status_confidence": 0.96,
    "power_source": "solar",
    "fixture_type": "solar_all_in_one",
    "lamp_watt": 60,
    "install_date": "2024-11-08",
    "warranty_expiry": "2027-11-08",
    "commune_id": "COM-001",
    "last_seen_at": "2026-08-20T12:00:00Z",
    "last_sweep_id": "SWEEP-2026-08-19-01",
    "open_fault_count": 0,
    "has_iot_node": false,
    "near_sensitive_poi": false
   }
  },
  {
   "type": "Feature",
   "geometry": {
    "type": "Point",
    "coordinates": [
     106.497118,
     10.969089
    ]
   },
   "properties": {
    "pole_id": "POLE-0060",
    "segment_id": "SEG-002",
    "fixture_status": "normal",
    "status_confidence": 0.93,
    "power_source": "solar",
    "fixture_type": "solar_all_in_one",
    "lamp_watt": 60,
    "install_date": "2021-03-05",
    "warranty_expiry": "2023-03-05",
    "commune_id": "COM-001",
    "last_seen_at": "2026-08-19T12:00:00Z",
    "last_sweep_id": "SWEEP-2026-08-19-01",
    "open_fault_count": 0,
    "has_iot_node": false,
    "near_sensitive_poi": false
   }
  },
  {
   "type": "Feature",
   "geometry": {
    "type": "Point",
    "coordinates": [
     106.497167,
     10.969449
    ]
   },
   "properties": {
    "pole_id": "POLE-0061",
    "segment_id": "SEG-002",
    "fixture_status": "normal",
    "status_confidence": 0.94,
    "power_source": "solar",
    "fixture_type": "solar_all_in_one",
    "lamp_watt": 60,
    "install_date": "2024-07-02",
    "warranty_expiry": "2026-07-02",
    "commune_id": "COM-001",
    "last_seen_at": "2026-08-17T12:00:00Z",
    "last_sweep_id": "SWEEP-2026-08-19-01",
    "open_fault_count": 0,
    "has_iot_node": false,
    "near_sensitive_poi": false
   }
  },
  {
   "type": "Feature",
   "geometry": {
    "type": "Point",
    "coordinates": [
     106.497198,
     10.969811
    ]
   },
   "properties": {
    "pole_id": "POLE-0062",
    "segment_id": "SEG-002",
    "fixture_status": "normal",
    "status_confidence": 0.96,
    "power_source": "solar",
    "fixture_type": "solar_all_in_one",
    "lamp_watt": 60,
    "install_date": "2024-08-01",
    "warranty_expiry": "2027-08-01",
    "commune_id": "COM-001",
    "last_seen_at": "2026-08-17T12:00:00Z",
    "last_sweep_id": "SWEEP-2026-08-19-01",
    "open_fault_count": 0,
    "has_iot_node": false,
    "near_sensitive_poi": false
   }
  },
  {
   "type": "Feature",
   "geometry": {
    "type": "Point",
    "coordinates": [
     106.497211,
     10.970174
    ]
   },
   "properties": {
    "pole_id": "POLE-0063",
    "segment_id": "SEG-002",
    "fixture_status": "unknown",
    "status_confidence": null,
    "power_source": "solar",
    "fixture_type": "solar_all_in_one",
    "lamp_watt": 40,
    "install_date": "2024-09-24",
    "warranty_expiry": "2029-09-24",
    "commune_id": "COM-001",
    "last_seen_at": "2026-08-17T12:00:00Z",
    "last_sweep_id": "SWEEP-2026-08-19-01",
    "open_fault_count": 0,
    "has_iot_node": true,
    "near_sensitive_poi": false
   }
  },
  {
   "type": "Feature",
   "geometry": {
    "type": "Point",
    "coordinates": [
     106.497241,
     10.970537
    ]
   },
   "properties": {
    "pole_id": "POLE-0064",
    "segment_id": "SEG-002",
    "fixture_status": "normal",
    "status_confidence": 0.9,
    "power_source": "solar",
    "fixture_type": "solar_all_in_one",
    "lamp_watt": 40,
    "install_date": "2023-11-22",
    "warranty_expiry": "2026-11-22",
    "commune_id": "COM-001",
    "last_seen_at": "2026-08-17T12:00:00Z",
    "last_sweep_id": "SWEEP-2026-08-19-01",
    "open_fault_count": 0,
    "has_iot_node": false,
    "near_sensitive_poi": false
   }
  },
  {
   "type": "Feature",
   "geometry": {
    "type": "Point",
    "coordinates": [
     106.49727,
     10.970899
    ]
   },
   "properties": {
    "pole_id": "POLE-0065",
    "segment_id": "SEG-002",
    "fixture_status": "unknown",
    "status_confidence": null,
    "power_source": "solar",
    "fixture_type": "solar_all_in_one",
    "lamp_watt": 40,
    "install_date": "2021-07-19",
    "warranty_expiry": "2026-07-19",
    "commune_id": "COM-001",
    "last_seen_at": "2026-08-20T12:00:00Z",
    "last_sweep_id": "SWEEP-2026-08-19-01",
    "open_fault_count": 0,
    "has_iot_node": false,
    "near_sensitive_poi": false
   }
  },
  {
   "type": "Feature",
   "geometry": {
    "type": "Point",
    "coordinates": [
     106.497367,
     10.97125
    ]
   },
   "properties": {
    "pole_id": "POLE-0066",
    "segment_id": "SEG-002",
    "fixture_status": "normal",
    "status_confidence": 0.94,
    "power_source": "solar",
    "fixture_type": "solar_all_in_one",
    "lamp_watt": 40,
    "install_date": "2021-05-13",
    "warranty_expiry": "2024-05-13",
    "commune_id": "COM-001",
    "last_seen_at": "2026-08-17T12:00:00Z",
    "last_sweep_id": "SWEEP-2026-08-19-01",
    "open_fault_count": 0,
    "has_iot_node": false,
    "near_sensitive_poi": false
   }
  },
  {
   "type": "Feature",
   "geometry": {
    "type": "Point",
    "coordinates": [
     106.49745,
     10.971605
    ]
   },
   "properties": {
    "pole_id": "POLE-0067",
    "segment_id": "SEG-002",
    "fixture_status": "dim",
    "status_confidence": 0.72,
    "power_source": "solar",
    "fixture_type": "solar_all_in_one",
    "lamp_watt": 60,
    "install_date": "2024-05-27",
    "warranty_expiry": "2026-05-27",
    "commune_id": "COM-001",
    "last_seen_at": "2026-08-20T12:00:00Z",
    "last_sweep_id": "SWEEP-2026-08-19-01",
    "open_fault_count": 1,
    "has_iot_node": false,
    "near_sensitive_poi": false
   }
  },
  {
   "type": "Feature",
   "geometry": {
    "type": "Point",
    "coordinates": [
     106.497522,
     10.971961
    ]
   },
   "properties": {
    "pole_id": "POLE-0068",
    "segment_id": "SEG-002",
    "fixture_status": "normal",
    "status_confidence": 0.99,
    "power_source": "solar",
    "fixture_type": "solar_all_in_one",
    "lamp_watt": 40,
    "install_date": "2022-11-03",
    "warranty_expiry": "2027-11-03",
    "commune_id": "COM-001",
    "last_seen_at": "2026-08-20T12:00:00Z",
    "last_sweep_id": "SWEEP-2026-08-19-01",
    "open_fault_count": 0,
    "has_iot_node": false,
    "near_sensitive_poi": false
   }
  },
  {
   "type": "Feature",
   "geometry": {
    "type": "Point",
    "coordinates": [
     106.4976,
     10.972317
    ]
   },
   "properties": {
    "pole_id": "POLE-0069",
    "segment_id": "SEG-002",
    "fixture_status": "normal",
    "status_confidence": 0.9,
    "power_source": "solar",
    "fixture_type": "solar_all_in_one",
    "lamp_watt": 40,
    "install_date": "2022-04-05",
    "warranty_expiry": "2025-04-05",
    "commune_id": "COM-001",
    "last_seen_at": "2026-08-19T12:00:00Z",
    "last_sweep_id": "SWEEP-2026-08-19-01",
    "open_fault_count": 0,
    "has_iot_node": true,
    "near_sensitive_poi": false
   }
  },
  {
   "type": "Feature",
   "geometry": {
    "type": "Point",
    "coordinates": [
     106.497684,
     10.972671
    ]
   },
   "properties": {
    "pole_id": "POLE-0070",
    "segment_id": "SEG-002",
    "fixture_status": "normal",
    "status_confidence": 0.93,
    "power_source": "solar",
    "fixture_type": "solar_all_in_one",
    "lamp_watt": 40,
    "install_date": "2021-03-10",
    "warranty_expiry": "2023-03-10",
    "commune_id": "COM-001",
    "last_seen_at": "2026-08-18T12:00:00Z",
    "last_sweep_id": "SWEEP-2026-08-19-01",
    "open_fault_count": 0,
    "has_iot_node": false,
    "near_sensitive_poi": false
   }
  },
  {
   "type": "Feature",
   "geometry": {
    "type": "Point",
    "coordinates": [
     106.497769,
     10.973025
    ]
   },
   "properties": {
    "pole_id": "POLE-0071",
    "segment_id": "SEG-002",
    "fixture_status": "out",
    "status_confidence": 0.92,
    "power_source": "solar",
    "fixture_type": "solar_all_in_one",
    "lamp_watt": 40,
    "install_date": "2022-02-19",
    "warranty_expiry": "2027-02-19",
    "commune_id": "COM-001",
    "last_seen_at": "2026-08-20T12:00:00Z",
    "last_sweep_id": "SWEEP-2026-08-19-01",
    "open_fault_count": 1,
    "has_iot_node": false,
    "near_sensitive_poi": false
   }
  },
  {
   "type": "Feature",
   "geometry": {
    "type": "Point",
    "coordinates": [
     106.497853,
     10.973379
    ]
   },
   "properties": {
    "pole_id": "POLE-0072",
    "segment_id": "SEG-002",
    "fixture_status": "normal",
    "status_confidence": 0.96,
    "power_source": "solar",
    "fixture_type": "solar_all_in_one",
    "lamp_watt": 60,
    "install_date": "2021-10-26",
    "warranty_expiry": "2023-10-26",
    "commune_id": "COM-001",
    "last_seen_at": "2026-08-17T12:00:00Z",
    "last_sweep_id": "SWEEP-2026-08-19-01",
    "open_fault_count": 0,
    "has_iot_node": false,
    "near_sensitive_poi": false
   }
  },
  {
   "type": "Feature",
   "geometry": {
    "type": "Point",
    "coordinates": [
     106.49794,
     10.973733
    ]
   },
   "properties": {
    "pole_id": "POLE-0073",
    "segment_id": "SEG-002",
    "fixture_status": "normal",
    "status_confidence": 0.96,
    "power_source": "solar",
    "fixture_type": "solar_all_in_one",
    "lamp_watt": 40,
    "install_date": "2021-07-27",
    "warranty_expiry": "2024-07-27",
    "commune_id": "COM-001",
    "last_seen_at": "2026-08-17T12:00:00Z",
    "last_sweep_id": "SWEEP-2026-08-19-01",
    "open_fault_count": 0,
    "has_iot_node": false,
    "near_sensitive_poi": false
   }
  },
  {
   "type": "Feature",
   "geometry": {
    "type": "Point",
    "coordinates": [
     106.498035,
     10.974085
    ]
   },
   "properties": {
    "pole_id": "POLE-0074",
    "segment_id": "SEG-002",
    "fixture_status": "normal",
    "status_confidence": 0.97,
    "power_source": "solar",
    "fixture_type": "solar_all_in_one",
    "lamp_watt": 60,
    "install_date": "2022-07-06",
    "warranty_expiry": "2027-07-06",
    "commune_id": "COM-001",
    "last_seen_at": "2026-08-17T12:00:00Z",
    "last_sweep_id": "SWEEP-2026-08-19-01",
    "open_fault_count": 0,
    "has_iot_node": false,
    "near_sensitive_poi": false
   }
  },
  {
   "type": "Feature",
   "geometry": {
    "type": "Point",
    "coordinates": [
     106.49813,
     10.974436
    ]
   },
   "properties": {
    "pole_id": "POLE-0075",
    "segment_id": "SEG-002",
    "fixture_status": "dim",
    "status_confidence": 0.77,
    "power_source": "solar",
    "fixture_type": "solar_all_in_one",
    "lamp_watt": 60,
    "install_date": "2023-04-27",
    "warranty_expiry": "2025-04-27",
    "commune_id": "COM-001",
    "last_seen_at": "2026-08-17T12:00:00Z",
    "last_sweep_id": "SWEEP-2026-08-19-01",
    "open_fault_count": 1,
    "has_iot_node": true,
    "near_sensitive_poi": false
   }
  },
  {
   "type": "Feature",
   "geometry": {
    "type": "Point",
    "coordinates": [
     106.498226,
     10.974788
    ]
   },
   "properties": {
    "pole_id": "POLE-0076",
    "segment_id": "SEG-002",
    "fixture_status": "normal",
    "status_confidence": 0.95,
    "power_source": "solar",
    "fixture_type": "solar_all_in_one",
    "lamp_watt": 60,
    "install_date": "2024-06-01",
    "warranty_expiry": "2027-06-01",
    "commune_id": "COM-001",
    "last_seen_at": "2026-08-19T12:00:00Z",
    "last_sweep_id": "SWEEP-2026-08-19-01",
    "open_fault_count": 0,
    "has_iot_node": true,
    "near_sensitive_poi": false
   }
  },
  {
   "type": "Feature",
   "geometry": {
    "type": "Point",
    "coordinates": [
     106.498321,
     10.975139
    ]
   },
   "properties": {
    "pole_id": "POLE-0077",
    "segment_id": "SEG-002",
    "fixture_status": "normal",
    "status_confidence": 0.92,
    "power_source": "solar",
    "fixture_type": "solar_all_in_one",
    "lamp_watt": 40,
    "install_date": "2023-10-23",
    "warranty_expiry": "2026-10-23",
    "commune_id": "COM-001",
    "last_seen_at": "2026-08-19T12:00:00Z",
    "last_sweep_id": "SWEEP-2026-08-19-01",
    "open_fault_count": 0,
    "has_iot_node": false,
    "near_sensitive_poi": true
   }
  },
  {
   "type": "Feature",
   "geometry": {
    "type": "Point",
    "coordinates": [
     106.498048,
     10.963327
    ]
   },
   "properties": {
    "pole_id": "POLE-0078",
    "segment_id": "SEG-003",
    "fixture_status": "normal",
    "status_confidence": 0.92,
    "power_source": "solar",
    "fixture_type": "solar_all_in_one",
    "lamp_watt": 60,
    "install_date": "2024-11-23",
    "warranty_expiry": "2027-11-23",
    "commune_id": "COM-001",
    "last_seen_at": "2026-08-20T12:00:00Z",
    "last_sweep_id": "SWEEP-2026-08-19-01",
    "open_fault_count": 0,
    "has_iot_node": false,
    "near_sensitive_poi": true
   }
  },
  {
   "type": "Feature",
   "geometry": {
    "type": "Point",
    "coordinates": [
     106.498204,
     10.963627
    ]
   },
   "properties": {
    "pole_id": "POLE-0079",
    "segment_id": "SEG-003",
    "fixture_status": "normal",
    "status_confidence": 0.92,
    "power_source": "grid",
    "fixture_type": "led_road_lamp",
    "lamp_watt": 80,
    "install_date": "2023-08-18",
    "warranty_expiry": "2028-08-18",
    "commune_id": "COM-001",
    "last_seen_at": "2026-08-17T12:00:00Z",
    "last_sweep_id": "SWEEP-2026-08-19-01",
    "open_fault_count": 0,
    "has_iot_node": false,
    "near_sensitive_poi": false
   }
  },
  {
   "type": "Feature",
   "geometry": {
    "type": "Point",
    "coordinates": [
     106.498322,
     10.963943
    ]
   },
   "properties": {
    "pole_id": "POLE-0080",
    "segment_id": "SEG-003",
    "fixture_status": "normal",
    "status_confidence": 0.94,
    "power_source": "solar",
    "fixture_type": "solar_all_in_one",
    "lamp_watt": 40,
    "install_date": "2023-05-08",
    "warranty_expiry": "2025-05-08",
    "commune_id": "COM-001",
    "last_seen_at": "2026-08-18T12:00:00Z",
    "last_sweep_id": "SWEEP-2026-08-19-01",
    "open_fault_count": 0,
    "has_iot_node": false,
    "near_sensitive_poi": true
   }
  },
  {
   "type": "Feature",
   "geometry": {
    "type": "Point",
    "coordinates": [
     106.498474,
     10.964246
    ]
   },
   "properties": {
    "pole_id": "POLE-0081",
    "segment_id": "SEG-003",
    "fixture_status": "normal",
    "status_confidence": 0.97,
    "power_source": "grid",
    "fixture_type": "led_road_lamp",
    "lamp_watt": 100,
    "install_date": "2023-12-19",
    "warranty_expiry": "2028-12-19",
    "commune_id": "COM-001",
    "last_seen_at": "2026-08-18T12:00:00Z",
    "last_sweep_id": "SWEEP-2026-08-19-01",
    "open_fault_count": 0,
    "has_iot_node": false,
    "near_sensitive_poi": false
   }
  },
  {
   "type": "Feature",
   "geometry": {
    "type": "Point",
    "coordinates": [
     106.498626,
     10.964548
    ]
   },
   "properties": {
    "pole_id": "POLE-0082",
    "segment_id": "SEG-003",
    "fixture_status": "normal",
    "status_confidence": 0.93,
    "power_source": "grid",
    "fixture_type": "led_road_lamp",
    "lamp_watt": 60,
    "install_date": "2023-01-23",
    "warranty_expiry": "2028-01-23",
    "commune_id": "COM-001",
    "last_seen_at": "2026-08-18T12:00:00Z",
    "last_sweep_id": "SWEEP-2026-08-19-01",
    "open_fault_count": 0,
    "has_iot_node": false,
    "near_sensitive_poi": true
   }
  },
  {
   "type": "Feature",
   "geometry": {
    "type": "Point",
    "coordinates": [
     106.498778,
     10.96485
    ]
   },
   "properties": {
    "pole_id": "POLE-0083",
    "segment_id": "SEG-003",
    "fixture_status": "normal",
    "status_confidence": 0.96,
    "power_source": "grid",
    "fixture_type": "led_road_lamp",
    "lamp_watt": 60,
    "install_date": "2022-11-28",
    "warranty_expiry": "2025-11-28",
    "commune_id": "COM-001",
    "last_seen_at": "2026-08-20T12:00:00Z",
    "last_sweep_id": "SWEEP-2026-08-19-01",
    "open_fault_count": 0,
    "has_iot_node": false,
    "near_sensitive_poi": false
   }
  },
  {
   "type": "Feature",
   "geometry": {
    "type": "Point",
    "coordinates": [
     106.498914,
     10.96516
    ]
   },
   "properties": {
    "pole_id": "POLE-0084",
    "segment_id": "SEG-003",
    "fixture_status": "normal",
    "status_confidence": 0.93,
    "power_source": "solar",
    "fixture_type": "solar_all_in_one",
    "lamp_watt": 40,
    "install_date": "2021-05-28",
    "warranty_expiry": "2024-05-28",
    "commune_id": "COM-001",
    "last_seen_at": "2026-08-20T12:00:00Z",
    "last_sweep_id": "SWEEP-2026-08-19-01",
    "open_fault_count": 0,
    "has_iot_node": false,
    "near_sensitive_poi": false
   }
  },
  {
   "type": "Feature",
   "geometry": {
    "type": "Point",
    "coordinates": [
     106.499035,
     10.965475
    ]
   },
   "properties": {
    "pole_id": "POLE-0085",
    "segment_id": "SEG-003",
    "fixture_status": "normal",
    "status_confidence": 0.96,
    "power_source": "grid",
    "fixture_type": "led_road_lamp",
    "lamp_watt": 80,
    "install_date": "2022-03-26",
    "warranty_expiry": "2027-03-26",
    "commune_id": "COM-001",
    "last_seen_at": "2026-08-20T12:00:00Z",
    "last_sweep_id": "SWEEP-2026-08-19-01",
    "open_fault_count": 0,
    "has_iot_node": true,
    "near_sensitive_poi": false
   }
  },
  {
   "type": "Feature",
   "geometry": {
    "type": "Point",
    "coordinates": [
     106.499156,
     10.965791
    ]
   },
   "properties": {
    "pole_id": "POLE-0086",
    "segment_id": "SEG-003",
    "fixture_status": "normal",
    "status_confidence": 0.94,
    "power_source": "grid",
    "fixture_type": "led_road_lamp",
    "lamp_watt": 80,
    "install_date": "2022-09-13",
    "warranty_expiry": "2025-09-13",
    "commune_id": "COM-001",
    "last_seen_at": "2026-08-18T12:00:00Z",
    "last_sweep_id": "SWEEP-2026-08-19-01",
    "open_fault_count": 0,
    "has_iot_node": false,
    "near_sensitive_poi": false
   }
  },
  {
   "type": "Feature",
   "geometry": {
    "type": "Point",
    "coordinates": [
     106.499011,
     10.96601
    ]
   },
   "properties": {
    "pole_id": "POLE-0087",
    "segment_id": "SEG-003",
    "fixture_status": "normal",
    "status_confidence": 0.96,
    "power_source": "solar",
    "fixture_type": "solar_all_in_one",
    "lamp_watt": 60,
    "install_date": "2021-04-21",
    "warranty_expiry": "2023-04-21",
    "commune_id": "COM-001",
    "last_seen_at": "2026-08-20T12:00:00Z",
    "last_sweep_id": "SWEEP-2026-08-19-01",
    "open_fault_count": 0,
    "has_iot_node": false,
    "near_sensitive_poi": false
   }
  },
  {
   "type": "Feature",
   "geometry": {
    "type": "Point",
    "coordinates": [
     106.498688,
     10.966125
    ]
   },
   "properties": {
    "pole_id": "POLE-0088",
    "segment_id": "SEG-003",
    "fixture_status": "normal",
    "status_confidence": 0.91,
    "power_source": "grid",
    "fixture_type": "led_road_lamp",
    "lamp_watt": 80,
    "install_date": "2024-08-23",
    "warranty_expiry": "2029-08-23",
    "commune_id": "COM-001",
    "last_seen_at": "2026-08-18T12:00:00Z",
    "last_sweep_id": "SWEEP-2026-08-19-01",
    "open_fault_count": 0,
    "has_iot_node": false,
    "near_sensitive_poi": true
   }
  },
  {
   "type": "Feature",
   "geometry": {
    "type": "Point",
    "coordinates": [
     106.498547,
     10.96636
    ]
   },
   "properties": {
    "pole_id": "POLE-0089",
    "segment_id": "SEG-003",
    "fixture_status": "normal",
    "status_confidence": 0.96,
    "power_source": "solar",
    "fixture_type": "solar_all_in_one",
    "lamp_watt": 60,
    "install_date": "2024-02-22",
    "warranty_expiry": "2026-02-22",
    "commune_id": "COM-001",
    "last_seen_at": "2026-08-19T12:00:00Z",
    "last_sweep_id": "SWEEP-2026-08-19-01",
    "open_fault_count": 0,
    "has_iot_node": false,
    "near_sensitive_poi": false
   }
  },
  {
   "type": "Feature",
   "geometry": {
    "type": "Point",
    "coordinates": [
     106.498681,
     10.96667
    ]
   },
   "properties": {
    "pole_id": "POLE-0090",
    "segment_id": "SEG-003",
    "fixture_status": "out",
    "status_confidence": 0.97,
    "power_source": "grid",
    "fixture_type": "led_road_lamp",
    "lamp_watt": 60,
    "install_date": "2022-05-27",
    "warranty_expiry": "2024-05-27",
    "commune_id": "COM-001",
    "last_seen_at": "2026-08-20T12:00:00Z",
    "last_sweep_id": "SWEEP-2026-08-19-01",
    "open_fault_count": 1,
    "has_iot_node": false,
    "near_sensitive_poi": false
   }
  },
  {
   "type": "Feature",
   "geometry": {
    "type": "Point",
    "coordinates": [
     106.498815,
     10.966981
    ]
   },
   "properties": {
    "pole_id": "POLE-0091",
    "segment_id": "SEG-003",
    "fixture_status": "out",
    "status_confidence": 0.97,
    "power_source": "solar",
    "fixture_type": "solar_all_in_one",
    "lamp_watt": 60,
    "install_date": "2023-08-04",
    "warranty_expiry": "2026-08-04",
    "commune_id": "COM-001",
    "last_seen_at": "2026-08-17T12:00:00Z",
    "last_sweep_id": "SWEEP-2026-08-19-01",
    "open_fault_count": 1,
    "has_iot_node": false,
    "near_sensitive_poi": false
   }
  },
  {
   "type": "Feature",
   "geometry": {
    "type": "Point",
    "coordinates": [
     106.498935,
     10.967297
    ]
   },
   "properties": {
    "pole_id": "POLE-0092",
    "segment_id": "SEG-003",
    "fixture_status": "out",
    "status_confidence": 0.97,
    "power_source": "solar",
    "fixture_type": "solar_all_in_one",
    "lamp_watt": 60,
    "install_date": "2024-02-20",
    "warranty_expiry": "2026-02-20",
    "commune_id": "COM-001",
    "last_seen_at": "2026-08-18T12:00:00Z",
    "last_sweep_id": "SWEEP-2026-08-19-01",
    "open_fault_count": 1,
    "has_iot_node": false,
    "near_sensitive_poi": false
   }
  },
  {
   "type": "Feature",
   "geometry": {
    "type": "Point",
    "coordinates": [
     106.499054,
     10.967613
    ]
   },
   "properties": {
    "pole_id": "POLE-0093",
    "segment_id": "SEG-003",
    "fixture_status": "out",
    "status_confidence": 0.97,
    "power_source": "grid",
    "fixture_type": "led_road_lamp",
    "lamp_watt": 100,
    "install_date": "2021-04-22",
    "warranty_expiry": "2026-04-22",
    "commune_id": "COM-001",
    "last_seen_at": "2026-08-20T12:00:00Z",
    "last_sweep_id": "SWEEP-2026-08-19-01",
    "open_fault_count": 1,
    "has_iot_node": false,
    "near_sensitive_poi": false
   }
  },
  {
   "type": "Feature",
   "geometry": {
    "type": "Point",
    "coordinates": [
     106.499172,
     10.96793
    ]
   },
   "properties": {
    "pole_id": "POLE-0094",
    "segment_id": "SEG-003",
    "fixture_status": "out",
    "status_confidence": 0.97,
    "power_source": "solar",
    "fixture_type": "solar_all_in_one",
    "lamp_watt": 60,
    "install_date": "2021-03-16",
    "warranty_expiry": "2026-03-16",
    "commune_id": "COM-001",
    "last_seen_at": "2026-08-18T12:00:00Z",
    "last_sweep_id": "SWEEP-2026-08-19-01",
    "open_fault_count": 1,
    "has_iot_node": false,
    "near_sensitive_poi": false
   }
  },
  {
   "type": "Feature",
   "geometry": {
    "type": "Point",
    "coordinates": [
     106.499284,
     10.968248
    ]
   },
   "properties": {
    "pole_id": "POLE-0095",
    "segment_id": "SEG-003",
    "fixture_status": "out",
    "status_confidence": 0.97,
    "power_source": "solar",
    "fixture_type": "solar_all_in_one",
    "lamp_watt": 60,
    "install_date": "2024-02-16",
    "warranty_expiry": "2027-02-16",
    "commune_id": "COM-001",
    "last_seen_at": "2026-08-18T12:00:00Z",
    "last_sweep_id": "SWEEP-2026-08-19-01",
    "open_fault_count": 1,
    "has_iot_node": false,
    "near_sensitive_poi": false
   }
  },
  {
   "type": "Feature",
   "geometry": {
    "type": "Point",
    "coordinates": [
     106.499478,
     10.968465
    ]
   },
   "properties": {
    "pole_id": "POLE-0096",
    "segment_id": "SEG-003",
    "fixture_status": "out",
    "status_confidence": 0.97,
    "power_source": "grid",
    "fixture_type": "led_road_lamp",
    "lamp_watt": 80,
    "install_date": "2022-06-14",
    "warranty_expiry": "2027-06-14",
    "commune_id": "COM-001",
    "last_seen_at": "2026-08-18T12:00:00Z",
    "last_sweep_id": "SWEEP-2026-08-19-01",
    "open_fault_count": 1,
    "has_iot_node": false,
    "near_sensitive_poi": false
   }
  },
  {
   "type": "Feature",
   "geometry": {
    "type": "Point",
    "coordinates": [
     106.499683,
     10.968684
    ]
   },
   "properties": {
    "pole_id": "POLE-0097",
    "segment_id": "SEG-003",
    "fixture_status": "dim",
    "status_confidence": 0.76,
    "power_source": "solar",
    "fixture_type": "solar_all_in_one",
    "lamp_watt": 60,
    "install_date": "2024-02-11",
    "warranty_expiry": "2027-02-11",
    "commune_id": "COM-001",
    "last_seen_at": "2026-08-20T12:00:00Z",
    "last_sweep_id": "SWEEP-2026-08-19-01",
    "open_fault_count": 1,
    "has_iot_node": false,
    "near_sensitive_poi": false
   }
  },
  {
   "type": "Feature",
   "geometry": {
    "type": "Point",
    "coordinates": [
     106.499679,
     10.969018
    ]
   },
   "properties": {
    "pole_id": "POLE-0098",
    "segment_id": "SEG-003",
    "fixture_status": "out",
    "status_confidence": 0.97,
    "power_source": "solar",
    "fixture_type": "solar_all_in_one",
    "lamp_watt": 60,
    "install_date": "2021-11-28",
    "warranty_expiry": "2026-11-28",
    "commune_id": "COM-001",
    "last_seen_at": "2026-08-17T12:00:00Z",
    "last_sweep_id": "SWEEP-2026-08-19-01",
    "open_fault_count": 1,
    "has_iot_node": false,
    "near_sensitive_poi": true
   }
  },
  {
   "type": "Feature",
   "geometry": {
    "type": "Point",
    "coordinates": [
     106.499652,
     10.969354
    ]
   },
   "properties": {
    "pole_id": "POLE-0099",
    "segment_id": "SEG-003",
    "fixture_status": "normal",
    "status_confidence": 0.94,
    "power_source": "solar",
    "fixture_type": "solar_all_in_one",
    "lamp_watt": 40,
    "install_date": "2024-01-07",
    "warranty_expiry": "2027-01-07",
    "commune_id": "COM-001",
    "last_seen_at": "2026-08-18T12:00:00Z",
    "last_sweep_id": "SWEEP-2026-08-19-01",
    "open_fault_count": 0,
    "has_iot_node": false,
    "near_sensitive_poi": false
   }
  },
  {
   "type": "Feature",
   "geometry": {
    "type": "Point",
    "coordinates": [
     106.499639,
     10.96969
    ]
   },
   "properties": {
    "pole_id": "POLE-0100",
    "segment_id": "SEG-003",
    "fixture_status": "normal",
    "status_confidence": 0.99,
    "power_source": "solar",
    "fixture_type": "solar_all_in_one",
    "lamp_watt": 40,
    "install_date": "2022-12-06",
    "warranty_expiry": "2025-12-06",
    "commune_id": "COM-001",
    "last_seen_at": "2026-08-17T12:00:00Z",
    "last_sweep_id": "SWEEP-2026-08-19-01",
    "open_fault_count": 0,
    "has_iot_node": false,
    "near_sensitive_poi": true
   }
  },
  {
   "type": "Feature",
   "geometry": {
    "type": "Point",
    "coordinates": [
     106.499742,
     10.97001
    ]
   },
   "properties": {
    "pole_id": "POLE-0101",
    "segment_id": "SEG-003",
    "fixture_status": "normal",
    "status_confidence": 0.91,
    "power_source": "grid",
    "fixture_type": "led_road_lamp",
    "lamp_watt": 100,
    "install_date": "2022-08-23",
    "warranty_expiry": "2025-08-23",
    "commune_id": "COM-001",
    "last_seen_at": "2026-08-18T12:00:00Z",
    "last_sweep_id": "SWEEP-2026-08-19-01",
    "open_fault_count": 0,
    "has_iot_node": false,
    "near_sensitive_poi": false
   }
  },
  {
   "type": "Feature",
   "geometry": {
    "type": "Point",
    "coordinates": [
     106.499873,
     10.970321
    ]
   },
   "properties": {
    "pole_id": "POLE-0102",
    "segment_id": "SEG-003",
    "fixture_status": "unknown",
    "status_confidence": null,
    "power_source": "solar",
    "fixture_type": "solar_all_in_one",
    "lamp_watt": 60,
    "install_date": "2022-08-18",
    "warranty_expiry": "2024-08-18",
    "commune_id": "COM-001",
    "last_seen_at": "2026-08-19T12:00:00Z",
    "last_sweep_id": "SWEEP-2026-08-19-01",
    "open_fault_count": 0,
    "has_iot_node": false,
    "near_sensitive_poi": false
   }
  },
  {
   "type": "Feature",
   "geometry": {
    "type": "Point",
    "coordinates": [
     106.500004,
     10.970633
    ]
   },
   "properties": {
    "pole_id": "POLE-0103",
    "segment_id": "SEG-003",
    "fixture_status": "out",
    "status_confidence": 0.91,
    "power_source": "grid",
    "fixture_type": "led_road_lamp",
    "lamp_watt": 80,
    "install_date": "2024-06-26",
    "warranty_expiry": "2029-06-26",
    "commune_id": "COM-001",
    "last_seen_at": "2026-08-20T12:00:00Z",
    "last_sweep_id": "SWEEP-2026-08-19-01",
    "open_fault_count": 1,
    "has_iot_node": false,
    "near_sensitive_poi": false
   }
  }
 ]
}