{
 "type": "FeatureCollection",
 "crs_note": "EPSG:4326 (lng, lat)",
 "features": [
  {
   "type": "Feature",
   "geometry": {
    "type": "LineString",
    "coordinates": [
     [
      106.489639,
      10.970187
     ],
     [
      106.489994,
      10.970389
     ],
     [
      106.490697,
      10.970799
     ],
     [
      106.491858,
      10.971459
     ],
     [
      106.492683,
      10.971928
     ],
     [
      106.493129,
      10.972172
     ],
     [
      106.493857,
      10.972604
     ],
     [
      106.493979,
      10.972675
     ],
     [
      106.494771,
      10.973126
     ],
     [
      106.494821,
      10.973156
     ],
     [
      106.49584,
      10.97374
     ],
     [
      106.496356,
      10.974021
     ],
     [
      106.496476,
      10.974089
     ],
     [
      106.498321,
      10.975139
     ],
     [
      106.498517,
      10.97527
     ],
     [
      106.499371,
      10.975744
     ],
     [
      106.499752,
      10.975955
     ],
     [
      106.50013,
      10.976162
     ],
     [
      106.500524,
      10.976403
     ],
     [
      106.500951,
      10.976643
     ],
     [
      106.501577,
      10.977003
     ],
     [
      106.502164,
      10.977335
     ],
     [
      106.502214,
      10.977363
     ],
     [
      106.502279,
      10.977402
     ],
     [
      106.502308,
      10.977419
     ]
    ]
   },
   "properties": {
    "segment_id": "SEG-001",
    "segment_name": "Tuyen A - Tinh lo 8",
    "road_class": "inter_commune",
    "length_m": 1600,
    "pole_count": 46,
    "controller_node_id": "NODE-0001",
    "has_active_segment_fault": false
   }
  },
  {
   "type": "Feature",
   "geometry": {
    "type": "LineString",
    "coordinates": [
     [
      106.495788,
      10.964558
     ],
     [
      106.495809,
      10.964614
     ],
     [
      106.49584,
      10.96468
     ],
     [
      106.49618,
      10.965451
     ],
     [
      106.4962,
      10.965513
     ],
     [
      106.49631,
      10.965789
     ],
     [
      106.496407,
      10.966091
     ],
     [
      106.496579,
      10.96686
     ],
     [
      106.4967,
      10.967367
     ],
     [
      106.496853,
      10.968012
     ],
     [
      106.497115,
      10.969073
     ],
     [
      106.497153,
      10.969275
     ],
     [
      106.497204,
      10.969889
     ],
     [
      106.497201,
      10.970048
     ],
     [
      106.49727,
      10.970899
     ],
     [
      106.49741,
      10.971406
     ],
     [
      106.497562,
      10.972157
     ],
     [
      106.497923,
      10.973672
     ],
     [
      106.498321,
      10.975139
     ]
    ]
   },
   "properties": {
    "segment_id": "SEG-002",
    "segment_name": "Tuyen B - Nguyen Van Ni",
    "road_class": "inter_commune",
    "length_m": 1200,
    "pole_count": 31,
    "controller_node_id": "NODE-0002",
    "has_active_segment_fault": false
   }
  },
  {
   "type": "Feature",
   "geometry": {
    "type": "LineString",
    "coordinates": [
     [
      106.498048,
      10.963327
     ],
     [
      106.498195,
      10.9636
     ],
     [
      106.498302,
      10.963904
     ],
     [
      106.498853,
      10.964999
     ],
     [
      106.499167,
      10.96582
     ],
     [
      106.499187,
      10.965888
     ],
     [
      106.499179,
      10.965946
     ],
     [
      106.499042,
      10.965999
     ],
     [
      106.498817,
      10.966079
     ],
     [
      106.498569,
      10.966167
     ],
     [
      106.498512,
      10.966279
     ],
     [
      106.498837,
      10.967033
     ],
     [
      106.499212,
      10.968037
     ],
     [
      106.499272,
      10.968198
     ],
     [
      106.499325,
      10.968426
     ],
     [
      106.499357,
      10.968434
     ],
     [
      106.499618,
      10.9685
     ],
     [
      106.499702,
      10.968737
     ],
     [
      106.499633,
      10.969581
     ],
     [
      106.499637,
      10.969681
     ],
     [
      106.499661,
      10.969817
     ],
     [
      106.499682,
      10.969868
     ],
     [
      106.500004,
      10.970633
     ]
    ]
   },
   "properties": {
    "segment_id": "SEG-003",
    "segment_name": "Tuyen C - Huynh Van Co",
    "road_class": "inter_village",
    "length_m": 900,
    "pole_count": 26,
    "controller_node_id": "NODE-0003",
    "has_active_segment_fault": true
   }
  }
 ]
}